0 SL-14 DEB
1 19144U 78100Q   13281.75446348  .00000088  00000-0  11332-2 0  6367
2 19144 082.6136 273.3203 0043458 248.6048 183.8846 11.89111393102652
0 SL-14 DEB
1 19144U 78100Q   13284.12471458  .00000081  00000-0  10211-2 0  6370
2 19144 082.6137 272.0106 0043455 243.8217 250.5664 11.89111932102933
0 SL-14 DEB
1 19144U 78100Q   13286.14321456  .00000062  00000-0  75761-3 0  6388
2 19144 082.6135 270.8948 0043341 239.8052 251.4017 11.89112403103170
0 SL-14 DEB
1 19144U 78100Q   13288.15836117  .00000042  00000-0  48226-3 0  6391
2 19144 082.6139 269.7809 0043284 235.7510 237.9289 11.89112904103410
0 SL-14 DEB
1 19144U 78100Q   13290.24930679  .00000066  00000-0  81511-3 0  6404
2 19144 082.6148 268.6259 0043269 231.4967 188.9928 11.89112831103660
0 SL-14 DEB
1 19144U 78100Q   13292.37606884  .00000085  00000-0  10838-2 0  6413
2 19144 082.6152 267.4508 0043225 227.1910 293.3612 11.89112838103917
0 SL-14 DEB
1 19144U 78100Q   13294.39441491  .00000085  00000-0  10892-2 0  6429
2 19144 082.6153 266.3358 0043201 223.1048 293.6142 11.89113011104153
